{"type": "FeatureCollection", "features": [ {"type": "Feature", "properties": {"norad_id": 30613, "name": "FENGYUN 1C DEB", "group": "fengyun-1c-debris", "lat": 70.22477301837037, "lon": 97.28569225673373, "alt_km": 471.87556970308196, "timestamp": "2025-12-26T04:40:06.064087+00:00", "meta": {"OBJECT_NAME": "FENGYUN 1C DEB", "OBJECT_ID": "1999-025AMU", "EPOCH": "2025-12-25T20:27:10.587168", "MEAN_MOTION": 15.1987515, "ECCENTRICITY": 0.00599436, "INCLINATION": 98.3065, "RA_OF_ASC_NODE": 120.8858, "ARG_OF_PERICENTER": 121.9379, "MEAN_ANOMALY": 238.7702, "EPHEMERIS_TYPE": 0, "CLASSIFICATION_TYPE": "U", "NORAD_CAT_ID": 30613, "ELEMENT_SET_NO": 999, "REV_AT_EPOCH": 99595, "BSTAR": 0.004500504, "MEAN_MOTION_DOT": 0.00102512, "MEAN_MOTION_DDOT": 0}, "tle": {"line1": "1 30613U 99025AMU 25359.85220587  .00102512  00000+0  45005-2 0  9995", "line2": "2 30613  98.3065 120.8858 0059943 121.9379 238.7702 15.19875150995958"}}, "geometry": {"type": "Point", "coordinates": [97.28569225673373, 70.22477301837037]}}, {"type": "Feature", "properties": {"norad_id": 30616, "name": "FENGYUN 1C DEB", "group": "fengyun-1c-debris", "lat": -22.12737872073274, "lon": 59.91873190410793, "alt_km": 1243.1624059702954, "timestamp": "2025-12-26T04:40:06.064097+00:00", "meta": {"OBJECT_NAME": "FENGYUN 1C DEB", "OBJECT_ID": "1999-025AMX", "EPOCH": "2025-12-25T14:24:23.518080", "MEAN_MOTION": 13.36050195, "ECCENTRICITY": 0.0381656, "INCLINATION": 98.6413, "RA_OF_ASC_NODE": 55.869, "ARG_OF_PERICENTER": 223.7679, "MEAN_ANOMALY": 133.261, "EPHEMERIS_TYPE": 0, "CLASSIFICATION_TYPE": "U", "NORAD_CAT_ID": 30616, "ELEMENT_SET_NO": 999, "REV_AT_EPOCH": 91872, "BSTAR": 0.0017371, "MEAN_MOTION_DOT": 1.313e-05, "MEAN_MOTION_DDOT": 0}, "tle": {"line1": "1 30616U 99025AMX 25359.60027220  .00001313  00000+0  17371-2 0  9992", "line2": "2 30616  98.6413  55.8690 0381656 223.7679 133.2610 13.36050195918723"}}, "geometry": {"type": "Point", "coordinates": [59.91873190410793, -22.12737872073274]}}, {"type": "Feature", "properties": {"norad_id": 30619, "name": "FENGYUN 1C DEB", "group": "fengyun-1c-debris", "lat": -30.76595068161422, "lon": 27.719728339615216, "alt_km": 658.1410054706812, "timestamp": "2025-12-26T04:40:06.064108+00:00", "meta": {"OBJECT_NAME": "FENGYUN 1C DEB", "OBJECT_ID": "1999-025ANA", "EPOCH": "2025-12-25T13:48:38.766816", "MEAN_MOTION": 14.41126958, "ECCENTRICITY": 0.0215224, "INCLINATION": 98.2946, "RA_OF_ASC_NODE": 22.1363, "ARG_OF_PERICENTER": 19.8397, "MEAN_ANOMALY": 341.1004, "EPHEMERIS_TYPE": 0, "CLASSIFICATION_TYPE": "U", "NORAD_CAT_ID": 30619, "ELEMENT_SET_NO": 999, "REV_AT_EPOCH": 99134, "BSTAR": 0.00032675, "MEAN_MOTION_DOT": 1.336e-05, "MEAN_MOTION_DDOT": 0}, "tle": {"line1": "1 30619U 99025ANA 25359.57544869  .00001336  00000+0  32675-3 0  9994", "line2": "2 30619  98.2946  22.1363 0215224  19.8397 341.1004 14.41126958991349"}}, "geometry": {"type": "Point", "coordinates": [27.719728339615216, -30.76595068161422]}}, {"type": "Feature", "properties": {"norad_id": 30621, "name": "FENGYUN 1C DEB", "group": "fengyun-1c-debris", "lat": -45.327535930565624, "lon": -48.04916149512774, "alt_km": 816.3350185280888, "timestamp": "2025-12-26T04:40:06.064118+00:00", "meta": {"OBJECT_NAME": "FENGYUN 1C DEB", "OBJECT_ID": "1999-025ANC", "EPOCH": "2025-12-24T07:27:03.076992", "MEAN_MOTION": 14.03900271, "ECCENTRICITY": 0.01363988, "INCLINATION": 98.6975, "RA_OF_ASC_NODE": 301.2402, "ARG_OF_PERICENTER": 274.3159, "MEAN_ANOMALY": 241.7775, "EPHEMERIS_TYPE": 0, "CLASSIFICATION_TYPE": "U", "NORAD_CAT_ID": 30621, "ELEMENT_SET_NO": 999, "REV_AT_EPOCH": 95752, "BSTAR": 0.0022507606, "MEAN_MOTION_DOT": 3.816e-05, "MEAN_MOTION_DDOT": 0}, "tle": {"line1": "1 30621U 99025ANC 25358.31045228  .00003816  00000+0  22508-2 0  9991", "line2": "2 30621  98.6975 301.2402 0136398 274.3159 241.7775 14.03900271957529"}}, "geometry": {"type": "Point", "coordinates": [-48.04916149512774, -45.327535930565624]}}, {"type": "Feature", "properties": {"norad_id": 30622, "name": "FENGYUN 1C DEB", "group": "fengyun-1c-debris", "lat": 78.74000241319669, "lon": -87.00960189520447, "alt_km": 800.5939078333049, "timestamp": "2025-12-26T04:40:06.064129+00:00", "meta": {"OBJECT_NAME": "FENGYUN 1C DEB", "OBJECT_ID": "1999-025AND", "EPOCH": "2025-12-23T20:00:58.826016", "MEAN_MOTION": 14.31388151, "ECCENTRICITY": 0.0072428, "INCLINATION": 101.0013, "RA_OF_ASC_NODE": 12.3003, "ARG_OF_PERICENTER": 344.4391, "MEAN_ANOMALY": 189.7638, "EPHEMERIS_TYPE": 0, "CLASSIFICATION_TYPE": "U", "NORAD_CAT_ID": 30622, "ELEMENT_SET_NO": 999, "REV_AT_EPOCH": 68956, "BSTAR": 0.0030539544, "MEAN_MOTION_DOT": 8.28e-05, "MEAN_MOTION_DDOT": 0}, "tle": {"line1": "1 30622U 99025AND 25357.83401419  .00008280  00000+0  30540-2 0  9991", "line2": "2 30622 101.0013  12.3003 0072428 344.4391 189.7638 14.31388151689562"}}, "geometry": {"type": "Point", "coordinates": [-87.00960189520447, 78.74000241319669]}}, {"type": "Feature", "properties": {"norad_id": 30623, "name": "FENGYUN 1C DEB", "group": "fengyun-1c-debris", "lat": 32.76298216026893, "lon": 171.26429070264004, "alt_km": 913.5690319627092, "timestamp": "2025-12-26T04:40:06.064139+00:00", "meta": {"OBJECT_NAME": "FENGYUN 1C DEB", "OBJECT_ID": "1999-025ANE", "EPOCH": "2025-12-25T00:12:33.173856", "MEAN_MOTION": 13.29348403, "ECCENTRICITY": 0.04037335, "INCLINATION": 98.8229, "RA_OF_ASC_NODE": 175.9837, "ARG_OF_PERICENTER": 77.5276, "MEAN_ANOMALY": 46.8647, "EPHEMERIS_TYPE": 0, "CLASSIFICATION_TYPE": "U", "NORAD_CAT_ID": 30623, "ELEMENT_SET_NO": 999, "REV_AT_EPOCH": 91379, "BSTAR": 0.00055414261, "MEAN_MOTION_DOT": 3.69e-06, "MEAN_MOTION_DDOT": 0}, "tle": {"line1": "1 30623U 99025ANE 25359.00871729  .00000369  00000+0  55414-3 0  9996", "line2": "2 30623  98.8229 175.9837 0403733  77.5276  46.8647 13.29348403913799"}}, "geometry": {"type": "Point", "coordinates": [171.26429070264004, 32.76298216026893]}}, {"type": "Feature", "properties": {"norad_id": 30624, "name": "FENGYUN 1C DEB", "group": "fengyun-1c-debris", "lat": 79.88729203583651, "lon": 21.917668221222026, "alt_km": 690.1434094605293, "timestamp": "2025-12-26T04:40:06.064149+00:00", "meta": {"OBJECT_NAME": "FENGYUN 1C DEB", "OBJECT_ID": "1999-025ANF", "EPOCH": "2025-12-25T16:47:16.909728", "MEAN_MOTION": 14.62876938, "ECCENTRICITY": 0.00236194, "INCLINATION": 98.8853, "RA_OF_ASC_NODE": 82.68, "ARG_OF_PERICENTER": 232.2015, "MEAN_ANOMALY": 127.7046, "EPHEMERIS_TYPE": 0, "CLASSIFICATION_TYPE": "U", "NORAD_CAT_ID": 30624, "ELEMENT_SET_NO": 999, "REV_AT_EPOCH": 97685, "BSTAR": 0.0048639357, "MEAN_MOTION_DOT": 0.00024996, "MEAN_MOTION_DDOT": 0}, "tle": {"line1": "1 30624U 99025ANF 25359.69950127  .00024996  00000+0  48639-2 0  9994", "line2": "2 30624  98.8853  82.6800 0023619 232.2015 127.7046 14.62876938976854"}}, "geometry": {"type": "Point", "coordinates": [21.917668221222026, 79.88729203583651]}}, {"type": "Feature", "properties": {"norad_id": 30625, "name": "FENGYUN 1C DEB", "group": "fengyun-1c-debris", "lat": 70.18330036383982, "lon": 162.62391816299308, "alt_km": 776.3952321742199, "timestamp": "2025-12-26T04:40:06.064159+00:00", "meta": {"OBJECT_NAME": "FENGYUN 1C DEB", "OBJECT_ID": "1999-025ANG", "EPOCH": "2025-12-25T19:50:22.046784", "MEAN_MOTION": 14.41836602, "ECCENTRICITY": 0.00478226, "INCLINATION": 98.9281, "RA_OF_ASC_NODE": 316.3751, "ARG_OF_PERICENTER": 263.5888, "MEAN_ANOMALY": 95.9853, "EPHEMERIS_TYPE": 0, "CLASSIFICATION_TYPE": "U", "NORAD_CAT_ID": 30625, "ELEMENT_SET_NO": 999, "REV_AT_EPOCH": 96881, "BSTAR": 0.0040985259, "MEAN_MOTION_DOT": 0.00013562, "MEAN_MOTION_DDOT": 0}, "tle": {"line1": "1 30625U 99025ANG 25359.82664406  .00013562  00000+0  40985-2 0  9995", "line2": "2 30625  98.9281 316.3751 0047822 263.5888  95.9853 14.41836602968810"}}, "geometry": {"type": "Point", "coordinates": [162.62391816299308, 70.18330036383982]}}, {"type": "Feature", "properties": {"norad_id": 30628, "name": "FENGYUN 1C DEB", "group": "fengyun-1c-debris", "lat": 27.77229957207064, "lon": -87.13178226781451, "alt_km": 676.9646062410711, "timestamp": "2025-12-26T04:40:06.064170+00:00", "meta": {"OBJECT_NAME": "FENGYUN 1C DEB", "OBJECT_ID": "1999-025ANK", "EPOCH": "2025-12-25T12:11:51.186912", "MEAN_MOTION": 14.69413416, "ECCENTRICITY": 0.0021834, "INCLINATION": 99.3403, "RA_OF_ASC_NODE": 277.0567, "ARG_OF_PERICENTER": 204.5378, "MEAN_ANOMALY": 155.4786, "EPHEMERIS_TYPE": 0, "CLASSIFICATION_TYPE": "U", "NORAD_CAT_ID": 30628, "ELEMENT_SET_NO": 999, "REV_AT_EPOCH": 98658, "BSTAR": 0.0026436, "MEAN_MOTION_DOT": 0.00015672, "MEAN_MOTION_DDOT": 0}, "tle": {"line1": "1 30628U 99025ANK 25359.50823133  .00015672  00000+0  26436-2 0  9996", "line2": "2 30628  99.3403 277.0567 0021834 204.5378 155.4786 14.69413416986581"}}, "geometry": {"type": "Point", "coordinates": [-87.13178226781451, 27.77229957207064]}}, {"type": "Feature", "properties": {"norad_id": 30629, "name": "FENGYUN 1C DEB", "group": "fengyun-1c-debris", "lat": 76.77753299473538, "lon": 53.75236702456396, "alt_km": 685.88600090001, "timestamp": "2025-12-26T04:40:06.064180+00:00", "meta": {"OBJECT_NAME": "FENGYUN 1C DEB", "OBJECT_ID": "1999-025ANL", "EPOCH": "2025-12-25T12:26:17.664864", "MEAN_MOTION": 14.5990766, "ECCENTRICITY": 0.0007348, "INCLINATION": 99.2499, "RA_OF_ASC_NODE": 96.9135, "ARG_OF_PERICENTER": 169.9917, "MEAN_ANOMALY": 318.4743, "EPHEMERIS_TYPE": 0, "CLASSIFICATION_TYPE": "U", "NORAD_CAT_ID": 30629, "ELEMENT_SET_NO": 999, "REV_AT_EPOCH": 98076, "BSTAR": 0.00334, "MEAN_MOTION_DOT": 0.00015981, "MEAN_MOTION_DDOT": 0}, "tle": {"line1": "1 30629U 99025ANL 25359.51826001  .00015981  00000+0  33400-2 0  9997", "line2": "2 30629  99.2499  96.9135 0007348 169.9917 318.4743 14.59907660980768"}}, "geometry": {"type": "Point", "coordinates": [53.75236702456396, 76.77753299473538]}}]}